OBJECT_NAME,OBJECT_ID,EPOCH,MEAN_MOTION,ECCENTRICITY,INCLINATION,RA_OF_ASC_NODE,ARG_OF_PERICENTER,MEAN_ANOMALY,EPHEMERIS_TYPE,CLASSIFICATION_TYPE,NORAD_CAT_ID,ELEMENT_SET_NO,REV_AT_EPOCH,BSTAR,MEAN_MOTION_DOT,MEAN_MOTION_DDOT
COSMOS 2251 DEB,1993-036AKV,2024-10-06T10:59:38.733216,15.01715050,0.007476,73.9356,291.0988,283.6725,75.6146,0,U,35451,999,83395,3.257E-03,4.5236E-04,0
COSMOS 2251 DEB,1993-036AKX,2024-10-08T03:36:48.755520,14.34717056,0.0072576,74.0073,93.0932,325.5522,34.0936,0,U,35453,999,80035,1.1482E-02,3.3639E-04,0
COSMOS 2251 DEB,1993-036ALA,2024-10-09T06:08:36.159648,14.56662167,0.0080113,73.9560,226.2726,176.9921,183.1742,0,U,35456,999,59591,7.5828E-03,3.5509E-04,0
COSMOS 2251 DEB,1993-036ALG,2024-10-09T11:42:47.893248,14.24350965,0.0090481,74.0479,325.7565,102.8759,258.2514,0,U,35462,999,60256,3.3772E-03,8.129E-05,0
COSMOS 2251 DEB,1993-036ALK,2024-10-08T23:32:51.658944,14.42121884,0.0065598,73.9990,277.3421,181.7814,178.3119,0,U,35465,999,81041,1.8017E-03,6.058E-05,0
COSMOS 2251 DEB,1993-036ALV,2024-10-08T08:42:40.886208,14.56962033,0.0024432,74.0267,272.9094,87.2361,273.1599,0,U,35475,999,59318,3.7971E-02,1.7586E-03,0
COSMOS 2251 DEB,1993-036ALW,2024-10-09T12:17:53.159712,14.61376782,0.0023595,73.9815,175.1052,264.6336,153.4251,0,U,35476,999,81597,5.2616E-03,2.6199E-04,0
COSMOS 2251 DEB,1993-036AMA,2024-10-08T11:42:58.385664,13.53985277,0.0389568,73.9197,188.6023,292.7540,63.2845,0,U,35583,999,76718,8.5763E-03,9.406E-05,0
COSMOS 2251 DEB,1993-036AMC,2024-10-08T12:33:37.279296,13.72211056,0.0319186,73.9754,345.2801,345.4931,74.2632,0,U,35585,999,77817,6.431E-03,8.417E-05,0
COSMOS 2251 DEB,1993-036AMD,2024-09-26T18:19:02.080128,13.51110854,0.0409117,74.0186,290.0173,257.2706,224.6957,0,U,35586,999,76458,1.3558E-03,1.458E-05,0
COSMOS 2251 DEB,1993-036AME,2024-10-08T10:35:41.704224,14.69098522,0.0104402,74.0067,175.0889,109.9840,251.2610,0,U,35587,999,60021,3.2018E-03,2.0478E-04,0
COSMOS 2251 DEB,1993-036AMK,2024-10-08T09:56:56.399424,15.31617664,0.0048303,74.0030,172.9048,33.5228,326.9015,0,U,35592,999,83497,1.1899E-02,3.9579E-03,0
COSMOS 2251 DEB,1993-036AMM,2024-10-07T15:06:41.872320,14.72674508,0.0039716,73.8129,248.7780,79.2462,281.3176,0,U,35594,999,81803,6.6002E-03,4.2844E-04,0
COSMOS 2251 DEB,1993-036AMY,2024-10-08T06:22:37.821792,14.72317044,0.0075595,73.8884,135.4864,161.5423,198.8519,0,U,35605,999,81338,3.3627E-02,2.29596E-03,0
COSMOS 2251 DEB,1993-036AMZ,2024-10-08T20:03:51.358176,13.40118504,0.0460086,73.8130,335.3369,248.0740,107.0861,0,U,35606,999,75434,5.4798E-03,5.538E-05,0
COSMOS 2251 DEB,1993-036ANE,2024-10-08T23:39:12.519648,14.57657192,0.0025968,74.0258,288.0339,104.6072,255.7974,0,U,35611,999,80992,5.895E-03,2.709E-04,0
COSMOS 2251 DEB,1993-036ANL,2024-10-08T08:38:01.140288,14.37238727,0.0075749,73.9702,169.0197,62.6544,298.2292,0,U,35645,999,80568,4.8856E-02,1.53859E-03,0
COSMOS 2251 DEB,1993-036ANM,2024-10-09T13:25:53.524128,13.39646086,0.0461986,73.8752,16.5133,199.5918,173.1383,0,U,35646,999,76108,5.6964E-03,5.738E-05,0
