COSMOS 2251 DEB         
1 35451U 93036AKV 24280.45808719  .00045236  00000+0  32570-2 0  9995
2 35451  73.9356 291.0988 0074760 283.6725  75.6146 15.01715050833959
COSMOS 2251 DEB         
1 35453U 93036AKX 24282.15056430  .00033639  00000+0  11482-1 0  9993
2 35453  74.0073  93.0932 0072576 325.5522  34.0936 14.34717056800359
COSMOS 2251 DEB         
1 35456U 93036ALA 24283.25597407  .00035509  00000+0  75828-2 0  9995
2 35456  73.9560 226.2726 0080113 176.9921 183.1742 14.56662167595919
COSMOS 2251 DEB         
1 35462U 93036ALG 24283.48805432  .00008129  00000+0  33772-2 0  9997
2 35462  74.0479 325.7565 0090481 102.8759 258.2514 14.24350965602565
COSMOS 2251 DEB         
1 35465U 93036ALK 24282.98115346  .00006058  00000+0  18017-2 0  9996
2 35465  73.9990 277.3421 0065598 181.7814 178.3119 14.42121884810410
COSMOS 2251 DEB         
1 35475U 93036ALV 24282.36297322  .00175860  00000+0  37971-1 0  9991
2 35475  74.0267 272.9094 0024432  87.2361 273.1599 14.56962033593188
COSMOS 2251 DEB         
1 35476U 93036ALW 24283.51242083  .00026199  00000+0  52616-2 0  9998
2 35476  73.9815 175.1052 0023595 264.6336 153.4251 14.61376782815971
COSMOS 2251 DEB         
1 35583U 93036AMA 24282.48817576  .00009406  00000+0  85763-2 0  9998
2 35583  73.9197 188.6023 0389568 292.7540  63.2845 13.53985277767185
COSMOS 2251 DEB         
1 35585U 93036AMC 24282.52334814  .00008417  00000+0  64310-2 0  9990
2 35585  73.9754 345.2801 0319186 345.4931  74.2632 13.72211056778175
COSMOS 2251 DEB         
1 35586U 93036AMD 24270.76321852  .00001458  00000+0  13558-2 0  9998
2 35586  74.0186 290.0173 0409117 257.2706 224.6957 13.51110854764582
COSMOS 2251 DEB         
1 35587U 93036AME 24282.44145491  .00020478  00000+0  32018-2 0  9995
2 35587  74.0067 175.0889 0104402 109.9840 251.2610 14.69098522600216
COSMOS 2251 DEB         
1 35592U 93036AMK 24282.41454166  .00395790  00000+0  11899-1 0  9995
2 35592  74.0030 172.9048 0048303  33.5228 326.9015 15.31617664834979
COSMOS 2251 DEB         
1 35594U 93036AMM 24281.62965130  .00042844  00000+0  66002-2 0  9993
2 35594  73.8129 248.7780 0039716  79.2462 281.3176 14.72674508818032
COSMOS 2251 DEB         
1 35605U 93036AMY 24282.26571553  .00229596  00000+0  33627-1 0  9996
2 35605  73.8884 135.4864 0075595 161.5423 198.8519 14.72317044813380
COSMOS 2251 DEB         
1 35606U 93036AMZ 24282.83601109  .00005538  00000+0  54798-2 0  9992
2 35606  73.8130 335.3369 0460086 248.0740 107.0861 13.40118504754348
COSMOS 2251 DEB         
1 35611U 93036ANE 24282.98556157  .00027090  00000+0  58950-2 0  9997
2 35611  74.0258 288.0339 0025968 104.6072 255.7974 14.57657192809921
COSMOS 2251 DEB         
1 35645U 93036ANL 24282.35973542  .00153859  00000+0  48856-1 0  9992
2 35645  73.9702 169.0197 0075749  62.6544 298.2292 14.37238727805680
COSMOS 2251 DEB         
1 35646U 93036ANM 24283.55964727  .00005738  00000+0  56964-2 0  9993
2 35646  73.8752  16.5133 0461986 199.5918 173.1383 13.39646086761087
